JCSAT-3A                
1 29272U 06033A   26183.25145388 -.00000334  00000+0  00000+0 0  9999
2 29272   0.0106 342.8431 0002488 123.2777  32.6876  1.00273048 47892
KOREASAT 5 (MUGUNGWHA 5)
1 29349U 06034A   26183.03469323 -.00000348  00000+0  00000+0 0  9994
2 29349   1.8213  82.8201 0002030  58.3888 264.4058  1.00269428 41466
DIRECTV 9S              
1 29494U 06043A   26183.16850328 -.00000104  00000+0  00000+0 0  9998
2 29494   2.4573  80.7307 0005395  23.2512 135.6940  1.00271914 51530
OPTUS D1                
1 29495U 06043B   26183.18495005 -.00000175  00000+0  00000+0 0  9996
2 29495   3.0712  79.4818 0003782  16.9354  42.3523  1.00273132 72275
BADR-4                  
1 29526U 06051A   26183.23296194  .00000165  00000+0  00000+0 0  9992
2 29526   2.0414  80.9697 0005303  18.8813 298.7202  1.00270966 51418
WILDBLUE-1              
1 29643U 06054A   26183.20414896 -.00000040  00000+0  00000+0 0  9996
2 29643   2.8396  80.3021 0001671  22.7028 139.5152  1.00271399 53943
SKYNET 5A               
1 30794U 07007B   26183.10240709 -.00000263  00000+0  00000+0 0  9990
2 30794   5.3374  73.5600 0003765  32.8048 305.8413  1.00269494 70842
ANIK F3                 
1 31102U 07009A   26183.16294837  .00000009  00000+0  00000+0 0  9990
2 31102   1.2341  83.6881 0002856  16.2195 120.2467  1.00271332 46718
ASTRA 1L                
1 31306U 07016A   26183.22126189 -.00000175  00000+0  00000+0 0  9990
2 31306   1.3584  81.4765 0005667  21.9080 232.0433  1.00271880 45138
GALAXY 17 (G-17)        
1 31307U 07016B   26183.06671919 -.00000197  00000+0  00000+0 0  9993
2 31307   3.0073  79.7208 0004027  20.6939 118.7054  1.00271306 69959
INTELSAT 11 (IS-11)     
1 32253U 07044B   26183.16667838  .00000094  00000+0  00000+0 0  9996
2 32253   3.6021  78.4952 0003446  88.5032 233.1164  0.99047968 68597
WGS F1 (USA 195)        
1 32258U 07046A   26183.21770853 -.00000257  00000+0  00000+0 0  9993
2 32258   0.0246  77.7515 0000494  86.6344 151.7652  1.00272461 52483
SKYNET 5B               
1 32294U 07056B   26183.07405841  .00000147  00000+0  00000+0 0  9997
2 32294   5.2892  73.3265 0003459  31.9261 226.6135  1.00273394 68342
ASTRA 4A                
1 32299U 07057A   26183.22706858  .00000043  00000+0  00000+0 0  9997
2 32299   0.0110   2.7980 0002623 100.7537 263.2598  1.00272423 51799
HORIZONS-2              
1 32388U 07063B   26183.28109468 -.00000244  00000+0  00000+0 0  9997
2 32388   2.6388  80.4497 0004058  12.5773 214.6607  1.00269369 67967
THURAYA-3               
1 32404U 08001A   26183.23894197  .00000032  00000+0  00000+0 0  9998
2 32404   6.0130  35.8080 0000789 141.1623 254.1608  1.00141141 67643
THOR 5                  
1 32487U 08006A   26183.22602858  .00000002  00000+0  00000+0 0  9991
2 32487   0.0391 234.9024 0002724 231.5526 254.4289  1.00272169 67467
AMC-14                  
1 32708U 08011A   26183.09772707 -.00000111  00000+0  00000+0 0  9991
2 32708  24.0275  20.3402 0040508   7.6092 359.1945  1.00420091 68326
DIRECTV 11              
1 32729U 08013A   26183.16850328 -.00000115  00000+0  00000+0 0  9994
2 32729   0.0408 199.1940 0000261 270.8549 131.6479  1.00273237 45740
ICO G1                  
1 32763U 08016A   26182.63744640 -.00000164  00000+0  00000+0 0  9999
2 32763   5.5271  36.0814 0002142  53.5817 326.6380  1.00271934 66695
VINASAT-1               
1 32767U 08018A   26183.25223388 -.00000318  00000+0  00000+0 0  9996
2 32767   0.0364 288.5617 0001658 183.4774  30.9945  1.00271162 66744
STAR ONE C2             
1 32768U 08018B   26183.21328852 -.00000267  00000+0  00000+0 0  9998
2 32768   1.2769  82.3392 0002961  26.6084 183.0792  1.00273651 66809
AMOS-3                  
1 32794U 08022A   26183.16477170  .00000094  00000+0  00000+0 0  9991
2 32794   0.4919  86.0353 0002743  70.2830 233.3838  1.00484550 82480
GALAXY 18 (G-18)        
1 32951U 08024A   26183.16294837  .00000036  00000+0  00000+0 0  9991
2 32951   0.0162  46.1682 0003186  60.2494 109.4478  1.00272044 46004
ZHONGXING-9             
1 33051U 08028A   26183.12490265 -.00000238  00000+0  00000+0 0  9991
2 33051   0.8059  85.1797 0003995   4.0881 328.2349  1.00269778 66182
SKYNET 5C               
1 33055U 08030A   26183.08004698 -.00000132  00000+0  00000+0 0  9997
2 33055   3.8249  76.8695 0004459  32.2474 182.0323  1.00271345 66104
TURKSAT 3A              
1 33056U 08030B   26183.23434861  .00000157  00000+0  00000+0 0  9990
2 33056   0.0461  75.9221 0005358   5.6883 325.0165  1.00271509 52506
ECHOSTAR 11             
1 33207U 08035A   26183.20440896 -.00000048  00000+0  00000+0 0  9995
2 33207   1.0419  84.0288 0002593   8.2348 151.7710  1.00272223 51362
SUPERBIRD-C2            
1 33274U 08038A   26183.25310056 -.00000297  00000+0  00000+0 0  9997
2 33274   2.3976  81.0889 0006535  32.7612  33.5590  1.00270250105886
INMARSAT 4-F3           
1 33278U 08039A   26183.16850328 -.00000131  00000+0  00000+0 0  9990
2 33278   4.3055  31.6652 0002642  74.3783 136.8228  1.00271202 46691
NIMIQ 4                 
1 33373U 08044A   26183.06732586  .00000000  00000+0  00000+0 0  9990
2 33373   0.0395  61.8980 0001843  44.1512 116.3444  1.00267103 65131
GALAXY 19 (G-19)        
1 33376U 08045A   26183.20692230 -.00000129  00000+0  00000+0 0  9994
2 33376   0.0509 250.3976 0002937 225.8204 141.5200  1.00271595 65053
