OBJECT_NAME,OBJECT_ID,EPOCH,MEAN_MOTION,ECCENTRICITY,INCLINATION,RA_OF_ASC_NODE,ARG_OF_PERICENTER,MEAN_ANOMALY,EPHEMERIS_TYPE,CLASSIFICATION_TYPE,NORAD_CAT_ID,ELEMENT_SET_NO,REV_AT_EPOCH,BSTAR,MEAN_MOTION_DOT,MEAN_MOTION_DDOT
JCSAT-3A,2006-033A,2026-07-02T06:02:05.615232,1.00273048,.00024886,0.0106,342.8431,123.2777,32.6876,0,U,29272,999,4789,0,-.334E-5,0
KOREASAT 5 (MUGUNGWHA 5),2006-034A,2026-07-02T00:49:57.495072,1.00269428,.00020301,1.8213,82.8201,58.3888,264.4058,0,U,29349,999,4146,0,-.348E-5,0
DIRECTV 9S,2006-043A,2026-07-02T04:02:38.683392,1.00271914,.0005395,2.4573,80.7307,23.2512,135.6940,0,U,29494,999,5153,0,-.104E-5,0
OPTUS D1,2006-043B,2026-07-02T04:26:19.684320,1.00273132,.00037829,3.0712,79.4818,16.9354,42.3523,0,U,29495,999,7227,0,-.175E-5,0
BADR-4,2006-051A,2026-07-02T05:35:27.911616,1.00270966,.00053039,2.0414,80.9697,18.8813,298.7202,0,U,29526,999,5141,0,.165E-5,0
WILDBLUE-1,2006-054A,2026-07-02T04:53:58.470144,1.00271399,.00016717,2.8396,80.3021,22.7028,139.5152,0,U,29643,999,5394,0,-.4E-6,0
SKYNET 5A,2007-007B,2026-07-02T02:27:27.972576,1.00269494,.00037651,5.3374,73.5600,32.8048,305.8413,0,U,30794,999,7084,0,-.263E-5,0
ANIK F3,2007-009A,2026-07-02T03:54:38.739168,1.00271332,.00028566,1.2341,83.6881,16.2195,120.2467,0,U,31102,999,4671,0,.9E-7,0
ASTRA 1L,2007-016A,2026-07-02T05:18:37.027296,1.00271880,.00056675,1.3584,81.4765,21.9080,232.0433,0,U,31306,999,4513,0,-.175E-5,0
GALAXY 17 (G-17),2007-016B,2026-07-02T01:36:04.538016,1.00271306,.00040278,3.0073,79.7208,20.6939,118.7054,0,U,31307,999,6995,0,-.197E-5,0
INTELSAT 11 (IS-11),2007-044B,2026-07-02T04:00:01.012032,0.99047968,.00034466,3.6021,78.4952,88.5032,233.1164,0,U,32253,999,6859,0,.94E-6,0
WGS F1 (USA 195),2007-046A,2026-07-02T05:13:30.016992,1.00272461,.00004945,0.0246,77.7515,86.6344,151.7652,0,U,32258,999,5248,0,-.257E-5,0
SKYNET 5B,2007-056B,2026-07-02T01:46:38.646624,1.00273394,.00034596,5.2892,73.3265,31.9261,226.6135,0,U,32294,999,6834,0,.147E-5,0
ASTRA 4A,2007-057A,2026-07-02T05:26:58.725312,1.00272423,.00026233,0.0110,2.7980,100.7537,263.2598,0,U,32299,999,5179,0,.43E-6,0
HORIZONS-2,2007-063B,2026-07-02T06:44:46.580352,1.00269369,.00040585,2.6388,80.4497,12.5773,214.6607,0,U,32388,999,6796,0,-.244E-5,0
THURAYA-3,2008-001A,2026-07-02T05:44:04.586208,1.00141141,.00007894,6.0130,35.8080,141.1623,254.1608,0,U,32404,999,6764,0,.32E-6,0
THOR 5,2008-006A,2026-07-02T05:25:28.869312,1.00272169,.00027244,0.0391,234.9024,231.5526,254.4289,0,U,32487,999,6746,0,.2E-7,0
AMC-14,2008-011A,2026-07-02T02:20:43.618848,1.00420091,.00405088,24.0275,20.3402,7.6092,359.1945,0,U,32708,999,6832,0,-.111E-5,0
DIRECTV 11,2008-013A,2026-07-02T04:02:38.683392,1.00273237,.00002619,0.0408,199.1940,270.8549,131.6479,0,U,32729,999,4574,0,-.115E-5,0
ICO G1,2008-016A,2026-07-01T15:17:55.368960,1.00271934,.00021421,5.5271,36.0814,53.5817,326.6380,0,U,32763,999,6669,0,-.164E-5,0
VINASAT-1,2008-018A,2026-07-02T06:03:13.007232,1.00271162,.00016588,0.0364,288.5617,183.4774,30.9945,0,U,32767,999,6674,0,-.318E-5,0
STAR ONE C2,2008-018B,2026-07-02T05:07:08.128128,1.00273651,.00029618,1.2769,82.3392,26.6084,183.0792,0,U,32768,999,6680,0,-.267E-5,0
AMOS-3,2008-022A,2026-07-02T03:57:16.274880,1.00484550,.00027438,0.4919,86.0353,70.2830,233.3838,0,U,32794,999,8248,0,.94E-6,0
GALAXY 18 (G-18),2008-024A,2026-07-02T03:54:38.739168,1.00272044,.00031866,0.0162,46.1682,60.2494,109.4478,0,U,32951,999,4600,0,.36E-6,0
ZHONGXING-9,2008-028A,2026-07-02T02:59:51.588960,1.00269778,.00039956,0.8059,85.1797,4.0881,328.2349,0,U,33051,999,6618,0,-.238E-5,0
SKYNET 5C,2008-030A,2026-07-02T01:55:16.059072,1.00271345,.00044597,3.8249,76.8695,32.2474,182.0323,0,U,33055,999,6610,0,-.132E-5,0
TURKSAT 3A,2008-030B,2026-07-02T05:37:27.719904,1.00271509,.00053587,0.0461,75.9221,5.6883,325.0165,0,U,33056,999,5250,0,.157E-5,0
ECHOSTAR 11,2008-035A,2026-07-02T04:54:20.934144,1.00272223,.00025939,1.0419,84.0288,8.2348,151.7710,0,U,33207,999,5136,0,-.48E-6,0
SUPERBIRD-C2,2008-038A,2026-07-02T06:04:27.888384,1.00270250,.00065357,2.3976,81.0889,32.7612,33.5590,0,U,33274,999,10588,0,-.297E-5,0
INMARSAT 4-F3,2008-039A,2026-07-02T04:02:38.683392,1.00271202,.00026423,4.3055,31.6652,74.3783,136.8228,0,U,33278,999,4669,0,-.131E-5,0
NIMIQ 4,2008-044A,2026-07-02T01:36:56.954304,1.00267103,.00018434,0.0395,61.8980,44.1512,116.3444,0,U,33373,999,6513,0,0,0
GALAXY 19 (G-19),2008-045A,2026-07-02T04:57:58.086720,1.00271595,.00029374,0.0509,250.3976,225.8204,141.5200,0,U,33376,999,6505,0,-.129E-5,0
